{
  "type": "FeatureCollection",
  "features": [
    {"type":"Feature","geometry":{"type":"Point","coordinates":[93.68,27.61]},"properties":{"name":"Subansiri Dam (under constr)","state":"Arunachal Pradesh","river":"Subansiri","height_m":288,"capacity_mcm":8370,"type":"rockfill","year_built":2025,"marker-color":"#dc2626","marker-size":"large"}},
    {"type":"Feature","geometry":{"type":"Point","coordinates":[78.47,30.38]},"properties":{"name":"Tehri Dam","state":"Uttarakhand","river":"Bhagirathi","height_m":260,"capacity_mcm":3540,"type":"rockfill","year_built":2006,"marker-color":"#dc2626","marker-size":"large"}},
    {"type":"Feature","geometry":{"type":"Point","coordinates":[78.44,30.37]},"properties":{"name":"Tehri Pump Storage","state":"Uttarakhand","river":"Bhagirathi","height_m":260,"capacity_mcm":3540,"type":"rockfill","year_built":2006,"marker-color":"#dc2626","marker-size":"large"}},
    {"type":"Feature","geometry":{"type":"Point","coordinates":[76.43,31.42]},"properties":{"name":"Bhakra Dam","state":"Himachal Pradesh","river":"Sutlej","height_m":226,"capacity_mcm":9340,"type":"concrete_gravity","year_built":1963,"marker-color":"#dc2626","marker-size":"large"}},
    {"type":"Feature","geometry":{"type":"Point","coordinates":[76.95,9.85]},"properties":{"name":"Idukki Dam","state":"Kerala","river":"Periyar","height_m":168,"capacity_mcm":1996,"type":"concrete_arch","year_built":1976,"marker-color":"#ea580c","marker-size":"medium"}},
    {"type":"Feature","geometry":{"type":"Point","coordinates":[77.78,31.55]},"properties":{"name":"Nathpa Jhakri Dam","state":"Himachal Pradesh","river":"Sutlej","height_m":167,"capacity_mcm":2300,"type":"concrete_gravity","year_built":2004,"marker-color":"#ea580c","marker-size":"medium"}},
    {"type":"Feature","geometry":{"type":"Point","coordinates":[73.72,21.93]},"properties":{"name":"Sardar Sarovar","state":"Gujarat","river":"Narmada","height_m":163,"capacity_mcm":9480,"type":"concrete_gravity","year_built":2017,"marker-color":"#ea580c","marker-size":"medium"}},
    {"type":"Feature","geometry":{"type":"Point","coordinates":[73.72,21.93]},"properties":{"name":"Sardar Vallabhbhai Patel","state":"Gujarat","river":"Narmada","height_m":163,"capacity_mcm":9480,"type":"concrete_gravity","year_built":2017,"marker-color":"#ea580c","marker-size":"medium"}},
    {"type":"Feature","geometry":{"type":"Point","coordinates":[93.31,24.55]},"properties":{"name":"Tipaimukh Dam (under constr)","state":"Manipur","river":"Barak","height_m":162,"capacity_mcm":1550,"type":"concrete_gravity","year_built":2025,"marker-color":"#ea580c","marker-size":"medium"}},
    {"type":"Feature","geometry":{"type":"Point","coordinates":[75.48,32.26]},"properties":{"name":"Ranjit Sagar Dam","state":"Punjab","river":"Ravi","height_m":160,"capacity_mcm":3280,"type":"concrete_gravity","year_built":2001,"marker-color":"#ea580c","marker-size":"medium"}},
    {"type":"Feature","geometry":{"type":"Point","coordinates":[78.89,15.95]},"properties":{"name":"Srisailam Dam","state":"Andhra Pradesh","river":"Krishna","height_m":145,"capacity_mcm":8120,"type":"concrete_gravity","year_built":1981,"marker-color":"#ca8a04","marker-size":"medium"}},
    {"type":"Feature","geometry":{"type":"Point","coordinates":[78.89,15.95]},"properties":{"name":"Srisailam Dam (AP)","state":"Andhra Pradesh","river":"Krishna","height_m":145,"capacity_mcm":8120,"type":"concrete_gravity","year_built":1981,"marker-color":"#ca8a04","marker-size":"medium"}},
    {"type":"Feature","geometry":{"type":"Point","coordinates":[75.89,33.11]},"properties":{"name":"Baglihar Dam","state":"Jammu & Kashmir","river":"Chenab","height_m":144,"capacity_mcm":480,"type":"concrete_gravity","year_built":2008,"marker-color":"#ca8a04","marker-size":"medium"}},
    {"type":"Feature","geometry":{"type":"Point","coordinates":[75.98,33.28]},"properties":{"name":"Ratle Dam","state":"Jammu & Kashmir","river":"Chenab","height_m":135,"capacity_mcm":390,"type":"concrete_gravity","year_built":2023,"marker-color":"#ca8a04","marker-size":"medium"}},
    {"type":"Feature","geometry":{"type":"Point","coordinates":[75.73,33.56]},"properties":{"name":"Dulhasti Dam","state":"Jammu & Kashmir","river":"Chenab","height_m":134,"capacity_mcm":392,"type":"concrete_gravity","year_built":2005,"marker-color":"#ca8a04","marker-size":"medium"}},
    {"type":"Feature","geometry":{"type":"Point","coordinates":[76.28,32.02]},"properties":{"name":"Pong Dam","state":"Himachal Pradesh","river":"Beas","height_m":133,"capacity_mcm":8580,"type":"earthen","year_built":1975,"marker-color":"#ca8a04","marker-size":"medium"}},
    {"type":"Feature","geometry":{"type":"Point","coordinates":[76.28,32.02]},"properties":{"name":"Pong Dam (Beas)","state":"Himachal Pradesh","river":"Beas","height_m":133,"capacity_mcm":8580,"type":"earthen","year_built":1975,"marker-color":"#ca8a04","marker-size":"medium"}},
    {"type":"Feature","geometry":{"type":"Point","coordinates":[78.32,16.58]},"properties":{"name":"Nagarjuna Sagar","state":"Telangana","river":"Krishna","height_m":125,"capacity_mcm":11560,"type":"masonry","year_built":1967,"marker-color":"#ca8a04","marker-size":"medium"}},
    {"type":"Feature","geometry":{"type":"Point","coordinates":[80.12,29.07]},"properties":{"name":"Tanakpur Dam","state":"Uttarakhand","river":"Mahakali","height_m":117,"capacity_mcm":470,"type":"concrete_gravity","year_built":2001,"marker-color":"#ca8a04","marker-size":"medium"}},
    {"type":"Feature","geometry":{"type":"Point","coordinates":[74.86,33.19]},"properties":{"name":"Salal Dam","state":"Jammu & Kashmir","river":"Chenab","height_m":113,"capacity_mcm":335,"type":"concrete_gravity","year_built":1987,"marker-color":"#ca8a04","marker-size":"medium"}},
    {"type":"Feature","geometry":{"type":"Point","coordinates":[76.85,10.03]},"properties":{"name":"Idamalayar Dam","state":"Kerala","river":"Idamalayar","height_m":105,"capacity_mcm":438,"type":"concrete_gravity","year_built":1985,"marker-color":"#ca8a04","marker-size":"medium"}},
    {"type":"Feature","geometry":{"type":"Point","coordinates":[73.79,17.40]},"properties":{"name":"Koyna Dam","state":"Maharashtra","river":"Koyna","height_m":103,"capacity_mcm":3760,"type":"concrete_gravity","year_built":1964,"marker-color":"#ca8a04","marker-size":"medium"}},
    {"type":"Feature","geometry":{"type":"Point","coordinates":[74.39,34.42]},"properties":{"name":"Kishanganga Dam","state":"Jammu & Kashmir","river":"Jhelum","height_m":103,"capacity_mcm":200,"type":"concrete_gravity","year_built":2018,"marker-color":"#ca8a04","marker-size":"medium"}},
    {"type":"Feature","geometry":{"type":"Point","coordinates":[74.10,15.91]},"properties":{"name":"Supa Dam","state":"Karnataka","river":"Kaljhrefloader","height_m":101,"capacity_mcm":380,"type":"concrete_gravity","year_built":1985,"marker-color":"#ca8a04","marker-size":"medium"}},
    {"type":"Feature","geometry":{"type":"Point","coordinates":[76.28,22.22]},"properties":{"name":"Indira Sagar","state":"Madhya Pradesh","river":"Narmada","height_m":92,"capacity_mcm":12220,"type":"concrete_gravity","year_built":2005,"marker-color":"#2563eb","marker-size":"medium"}},
    {"type":"Feature","geometry":{"type":"Point","coordinates":[76.28,22.22]},"properties":{"name":"Narmada Sagar","state":"Madhya Pradesh","river":"Narmada","height_m":92,"capacity_mcm":12220,"type":"concrete_gravity","year_built":2005,"marker-color":"#2563eb","marker-size":"medium"}},
    {"type":"Feature","geometry":{"type":"Point","coordinates":[83.26,24.05]},"properties":{"name":"Rihand Dam","state":"Uttar Pradesh","river":"Rihand","height_m":90,"capacity_mcm":10400,"type":"concrete_gravity","year_built":1962,"marker-color":"#2563eb","marker-size":"medium"}},
    {"type":"Feature","geometry":{"type":"Point","coordinates":[77.22,31.85]},"properties":{"name":"Parbati Dam","state":"Himachal Pradesh","river":"Parbati","height_m":88,"capacity_mcm":650,"type":"concrete_gravity","year_built":2012,"marker-color":"#2563eb","marker-size":"medium"}},
    {"type":"Feature","geometry":{"type":"Point","coordinates":[77.33,31.75]},"properties":{"name":"Sainj Dam","state":"Himachal Pradesh","river":"Sainj","height_m":88,"capacity_mcm":420,"type":"concrete_gravity","year_built":2012,"marker-color":"#2563eb","marker-size":"medium"}},
    {"type":"Feature","geometry":{"type":"Point","coordinates":[77.03,10.46]},"properties":{"name":"Aliyar Dam","state":"Tamil Nadu","river":"Aliyar","height_m":82,"capacity_mcm":172,"type":"earthfill","year_built":1962,"marker-color":"#2563eb","marker-size":"small"}},
    {"type":"Feature","geometry":{"type":"Point","coordinates":[73.86,21.23]},"properties":{"name":"Ukai Dam","state":"Gujarat","river":"Tapti","height_m":81,"capacity_mcm":8500,"type":"earthfill","year_built":1972,"marker-color":"#2563eb","marker-size":"small"}},
    {"type":"Feature","geometry":{"type":"Point","coordinates":[78.73,30.48]},"properties":{"name":"Dhauliganga Dam","state":"Uttarakhand","river":"Dhauliganga","height_m":80,"capacity_mcm":330,"type":"concrete_gravity","year_built":2007,"marker-color":"#2563eb","marker-size":"small"}},
    {"type":"Feature","geometry":{"type":"Point","coordinates":[77.66,31.39]},"properties":{"name":"Kol Dam","state":"Himachal Pradesh","river":"Sutlej","height_m":72,"capacity_mcm":1050,"type":"concrete_gravity","year_built":2015,"marker-color":"#2563eb","marker-size":"small"}},
    {"type":"Feature","geometry":{"type":"Point","coordinates":[76.92,10.09]},"properties":{"name":"Parambikulam Dam","state":"Tamil Nadu","river":"Parambikulam","height_m":72,"capacity_mcm":460,"type":"concrete_gravity","year_built":1963,"marker-color":"#2563eb","marker-size":"small"}},
    {"type":"Feature","geometry":{"type":"Point","coordinates":[79.58,23.23]},"properties":{"name":"Bargi Dam","state":"Madhya Pradesh","river":"Narmada","height_m":69,"capacity_mcm":460,"type":"earthfill","year_built":1988,"marker-color":"#2563eb","marker-size":"small"}},
    {"type":"Feature","geometry":{"type":"Point","coordinates":[76.81,10.59]},"properties":{"name":"Sholaiyar Dam","state":"Tamil Nadu","river":"Siruvani","height_m":67,"capacity_mcm":480,"type":"concrete_gravity","year_built":1987,"marker-color":"#2563eb","marker-size":"small"}},
    {"type":"Feature","geometry":{"type":"Point","coordinates":[81.34,24.21]},"properties":{"name":"Bansagar Dam","state":"Madhya Pradesh","river":"Son","height_m":67,"capacity_mcm":5400,"type":"concrete_gravity","year_built":1978,"marker-color":"#2563eb","marker-size":"small"}},
    {"type":"Feature","geometry":{"type":"Point","coordinates":[78.06,31.38]},"properties":{"name":"Karcham Wangtoo","state":"Himachal Pradesh","river":"Sutlej","height_m":65,"capacity_mcm":200,"type":"concrete_gravity","year_built":2011,"marker-color":"#2563eb","marker-size":"small"}},
    {"type":"Feature","geometry":{"type":"Point","coordinates":[75.60,24.49]},"properties":{"name":"Gandhi Sagar","state":"Madhya Pradesh","river":"Chambal","height_m":63,"capacity_mcm":7320,"type":"masonry","year_built":1960,"marker-color":"#2563eb","marker-size":"small"}},
    {"type":"Feature","geometry":{"type":"Point","coordinates":[81.15,24.12]},"properties":{"name":"Tehri Dam (MP branch)","state":"Madhya Pradesh","river":"Son","height_m":63,"capacity_mcm":5400,"type":"concrete_gravity","year_built":1978,"marker-color":"#2563eb","marker-size":"small"}},
    {"type":"Feature","geometry":{"type":"Point","coordinates":[74.62,14.06]},"properties":{"name":"Gerusoppa Dam","state":"Karnataka","river":"Sharavathi","height_m":62,"capacity_mcm":450,"type":"concrete_gravity","year_built":2000,"marker-color":"#2563eb","marker-size":"small"}},
    {"type":"Feature","geometry":{"type":"Point","coordinates":[82.74,19.25]},"properties":{"name":"Upper Kolab Dam","state":"Odisha","river":"Kolab","height_m":62,"capacity_mcm":820,"type":"earthfill","year_built":1993,"marker-color":"#2563eb","marker-size":"small"}},
    {"type":"Feature","geometry":{"type":"Point","coordinates":[77.54,31.52]},"properties":{"name":"Tirthan Dam","state":"Himachal Pradesh","river":"Tirthan","height_m":62,"capacity_mcm":130,"type":"concrete_gravity","year_built":2010,"marker-color":"#2563eb","marker-size":"small"}},
    {"type":"Feature","geometry":{"type":"Point","coordinates":[83.82,20.87]},"properties":{"name":"Hirakud Dam","state":"Odisha","river":"Mahanadi","height_m":61,"capacity_mcm":7430,"type":"earthfill","year_built":1957,"marker-color":"#2563eb","marker-size":"small"}},
    {"type":"Feature","geometry":{"type":"Point","coordinates":[84.69,21.38]},"properties":{"name":"Rengali Dam","state":"Odisha","river":"Brahmani","height_m":61,"capacity_mcm":2400,"type":"earthfill","year_built":1976,"marker-color":"#2563eb","marker-size":"small"}},
    {"type":"Feature","geometry":{"type":"Point","coordinates":[82.35,17.15]},"properties":{"name":"Polavaram Dam","state":"Andhra Pradesh","river":"Godavari","height_m":60,"capacity_mcm":3800,"type":"concrete_gravity","year_built":2023,"marker-color":"#2563eb","marker-size":"small"}},
    {"type":"Feature","geometry":{"type":"Point","coordinates":[77.35,31.83]},"properties":{"name":"Larji Dam","state":"Himachal Pradesh","river":"Beas","height_m":60,"capacity_mcm":120,"type":"concrete_gravity","year_built":2008,"marker-color":"#2563eb","marker-size":"small"}},
    {"type":"Feature","geometry":{"type":"Point","coordinates":[75.55,12.63]},"properties":{"name":"Bhadra Dam","state":"Karnataka","river":"Bhadra","height_m":59,"capacity_mcm":320,"type":"concrete_gravity","year_built":1965,"marker-color":"#2563eb","marker-size":"small"}},
    {"type":"Feature","geometry":{"type":"Point","coordinates":[77.38,22.58]},"properties":{"name":"Tawa Dam","state":"Madhya Pradesh","river":"Tawa","height_m":57,"capacity_mcm":830,"type":"earthfill","year_built":1978,"marker-color":"#2563eb","marker-size":"small"}},
    {"type":"Feature","geometry":{"type":"Point","coordinates":[74.78,13.94]},"properties":{"name":"Linganamakki Dam","state":"Karnataka","river":"Sharavathi","height_m":57,"capacity_mcm":3110,"type":"concrete_gravity","year_built":1964,"marker-color":"#2563eb","marker-size":"small"}},
    {"type":"Feature","geometry":{"type":"Point","coordinates":[91.88,25.57]},"properties":{"name":"Umiam Dam","state":"Meghalaya","river":"Umiam","height_m":57,"capacity_mcm":243,"type":"earthfill","year_built":1965,"marker-color":"#2563eb","marker-size":"small"}},
    {"type":"Feature","geometry":{"type":"Point","coordinates":[74.81,13.55]},"properties":{"name":"Varahi Dam","state":"Karnataka","river":"Varahi","height_m":56,"capacity_mcm":145,"type":"concrete_gravity","year_built":1992,"marker-color":"#2563eb","marker-size":"small"}},
    {"type":"Feature","geometry":{"type":"Point","coordinates":[74.99,15.54]},"properties":{"name":"Malaprabha Dam","state":"Karnataka","river":"Malaprabha","height_m":55,"capacity_mcm":212,"type":"earthfill","year_built":1977,"marker-color":"#2563eb","marker-size":"small"}},
    {"type":"Feature","geometry":{"type":"Point","coordinates":[74.78,13.94]},"properties":{"name":"Chamundi Dam","state":"Karnataka","river":"Sharavathi","height_m":55,"capacity_mcm":200,"type":"concrete_gravity","year_built":1970,"marker-color":"#2563eb","marker-size":"small"}},
    {"type":"Feature","geometry":{"type":"Point","coordinates":[75.58,24.96]},"properties":{"name":"Rana Pratap Sagar","state":"Rajasthan","river":"Chambal","height_m":54,"capacity_mcm":5400,"type":"concrete_gravity","year_built":1970,"marker-color":"#2563eb","marker-size":"small"}},
    {"type":"Feature","geometry":{"type":"Point","coordinates":[78.61,15.21]},"properties":{"name":"Somasila Dam","state":"Andhra Pradesh","river":"Pennar","height_m":54,"capacity_mcm":100,"type":"concrete_gravity","year_built":1988,"marker-color":"#2563eb","marker-size":"small"}},
    {"type":"Feature","geometry":{"type":"Point","coordinates":[83.80,24.05]},"properties":{"name":"Tilaiya Dam (Sone)","state":"Madhya Pradesh","river":"Son","height_m":54,"capacity_mcm":600,"type":"earthfill","year_built":1962,"marker-color":"#2563eb","marker-size":"small"}},
    {"type":"Feature","geometry":{"type":"Point","coordinates":[76.95,9.85]},"properties":{"name":"Periyar Dam","state":"Tamil Nadu","river":"Periyar","height_m":53,"capacity_mcm":437,"type":"masonry","year_built":1895,"marker-color":"#2563eb","marker-size":"small"}},
    {"type":"Feature","geometry":{"type":"Point","coordinates":[75.88,16.57]},"properties":{"name":"Ghatprabha Dam","state":"Maharashtra","river":"Ghatprabha","height_m":52,"capacity_mcm":198,"type":"earthfill","year_built":1967,"marker-color":"#2563eb","marker-size":"small"}},
    {"type":"Feature","geometry":{"type":"Point","coordinates":[75.87,16.33]},"properties":{"name":"Almatti Dam","state":"Karnataka","river":"Krishna","height_m":52,"capacity_mcm":3120,"type":"earthfill","year_built":2002,"marker-color":"#2563eb","marker-size":"small"}},
    {"type":"Feature","geometry":{"type":"Point","coordinates":[75.89,16.52]},"properties":{"name":"Basava Sagar Dam","state":"Karnataka","river":"Krishna","height_m":52,"capacity_mcm":3120,"type":"earthfill","year_built":1992,"marker-color":"#2563eb","marker-size":"small"}},
    {"type":"Feature","geometry":{"type":"Point","coordinates":[86.80,23.78]},"properties":{"name":"Maithon Dam","state":"Jharkhand","river":"Barakar","height_m":50,"capacity_mcm":600,"type":"earthfill","year_built":1962,"marker-color":"#2563eb","marker-size":"small"}},
    {"type":"Feature","geometry":{"type":"Point","coordinates":[88.22,27.15]},"properties":{"name":"Teesta V Dam","state":"Sikkim","river":"Teesta","height_m":50,"capacity_mcm":350,"type":"concrete_gravity","year_built":2008,"marker-color":"#2563eb","marker-size":"small"}},
    {"type":"Feature","geometry":{"type":"Point","coordinates":[76.42,15.31]},"properties":{"name":"Tungabhadra Dam","state":"Karnataka","river":"Tungabhadra","height_m":49,"capacity_mcm":3140,"type":"masonry","year_built":1953,"marker-color":"#2563eb","marker-size":"small"}},
    {"type":"Feature","geometry":{"type":"Point","coordinates":[77.62,15.68]},"properties":{"name":"Tungabhadra Dam (AP)","state":"Andhra Pradesh","river":"Tungabhadra","height_m":49,"capacity_mcm":3140,"type":"masonry","year_built":1953,"marker-color":"#2563eb","marker-size":"small"}},
    {"type":"Feature","geometry":{"type":"Point","coordinates":[76.42,15.31]},"properties":{"name":"Tungabhadra (Hospet)","state":"Karnataka","river":"Tungabhadra","height_m":49,"capacity_mcm":3140,"type":"masonry","year_built":1953,"marker-color":"#2563eb","marker-size":"small"}},
    {"type":"Feature","geometry":{"type":"Point","coordinates":[75.43,17.34]},"properties":{"name":"Malhand Dam","state":"Maharashtra","river":"Bhima","height_m":48,"capacity_mcm":200,"type":"earthfill","year_built":1972,"marker-color":"#2563eb","marker-size":"small"}},
    {"type":"Feature","geometry":{"type":"Point","coordinates":[78.15,11.77]},"properties":{"name":"Mettur Dam","state":"Tamil Nadu","river":"Cauvery","height_m":48,"capacity_mcm":960,"type":"concrete_gravity","year_built":1934,"marker-color":"#2563eb","marker-size":"small"}},
    {"type":"Feature","geometry":{"type":"Point","coordinates":[73.43,19.81]},"properties":{"name":"Vaitarna Dam","state":"Maharashtra","river":"Vaitarna","height_m":48,"capacity_mcm":290,"type":"earthfill","year_built":1970,"marker-color":"#2563eb","marker-size":"small"}},
    {"type":"Feature","geometry":{"type":"Point","coordinates":[77.12,18.42]},"properties":{"name":"Manjara Dam","state":"Maharashtra","river":"Manjara","height_m":48,"capacity_mcm":320,"type":"earthfill","year_built":1983,"marker-color":"#2563eb","marker-size":"small"}},
    {"type":"Feature","geometry":{"type":"Point","coordinates":[78.15,11.77]},"properties":{"name":"Mettur Dam (TN)","state":"Tamil Nadu","river":"Cauvery","height_m":48,"capacity_mcm":960,"type":"concrete_gravity","year_built":1934,"marker-color":"#2563eb","marker-size":"small"}},
    {"type":"Feature","geometry":{"type":"Point","coordinates":[77.55,9.97]},"properties":{"name":"Pambar Dam","state":"Tamil Nadu","river":"Pambar","height_m":48,"capacity_mcm":150,"type":"earthfill","year_built":1972,"marker-color":"#2563eb","marker-size":"small"}},
    {"type":"Feature","geometry":{"type":"Point","coordinates":[77.01,11.35]},"properties":{"name":"Bhavanisagar Dam","state":"Tamil Nadu","river":"Bhavani","height_m":47,"capacity_mcm":330,"type":"earthfill","year_built":1955,"marker-color":"#2563eb","marker-size":"small"}},
    {"type":"Feature","geometry":{"type":"Point","coordinates":[76.05,12.38]},"properties":{"name":"Harangi Dam","state":"Karnataka","river":"Harangi","height_m":47,"capacity_mcm":120,"type":"earthfill","year_built":1981,"marker-color":"#2563eb","marker-size":"small"}},
    {"type":"Feature","geometry":{"type":"Point","coordinates":[76.44,16.49]},"properties":{"name":"Narayanpur Dam","state":"Karnataka","river":"Krishna","height_m":46,"capacity_mcm":220,"type":"earthfill","year_built":1985,"marker-color":"#2563eb","marker-size":"small"}},
    {"type":"Feature","geometry":{"type":"Point","coordinates":[72.92,21.48]},"properties":{"name":"Purna Dam","state":"Gujarat","river":"Purna","height_m":46,"capacity_mcm":350,"type":"earthfill","year_built":1976,"marker-color":"#2563eb","marker-size":"small"}},
    {"type":"Feature","geometry":{"type":"Point","coordinates":[76.92,9.83]},"properties":{"name":"Kakki Dam","state":"Kerala","river":"Anathodu","height_m":46,"capacity_mcm":150,"type":"earthfill","year_built":1966,"marker-color":"#2563eb","marker-size":"small"}},
    {"type":"Feature","geometry":{"type":"Point","coordinates":[76.35,22.58]},"properties":{"name":"Omkareshwar Dam","state":"Madhya Pradesh","river":"Narmada","height_m":45,"capacity_mcm":2400,"type":"barrage","year_built":2007,"marker-color":"#2563eb","marker-size":"small"}},
    {"type":"Feature","geometry":{"type":"Point","coordinates":[76.35,22.58]},"properties":{"name":"Mandla (Gandhi Sagar)","state":"Madhya Pradesh","river":"Narmada","height_m":45,"capacity_mcm":2400,"type":"barrage","year_built":2007,"marker-color":"#2563eb","marker-size":"small"}},
    {"type":"Feature","geometry":{"type":"Point","coordinates":[78.17,16.39]},"properties":{"name":"Priyadarshini Jurala","state":"Telangana","river":"Krishna","height_m":44,"capacity_mcm":300,"type":"concrete_gravity","year_built":1995,"marker-color":"#2563eb","marker-size":"small"}},
    {"type":"Feature","geometry":{"type":"Point","coordinates":[77.91,9.98]},"properties":{"name":"Vaigai Dam","state":"Tamil Nadu","river":"Vaigai","height_m":44,"capacity_mcm":100,"type":"earthfill","year_built":1960,"marker-color":"#2563eb","marker-size":"small"}},
    {"type":"Feature","geometry":{"type":"Point","coordinates":[75.98,12.95]},"properties":{"name":"Hemavathy Dam","state":"Karnataka","river":"Hemavathy","height_m":44,"capacity_mcm":330,"type":"earthfill","year_built":1992,"marker-color":"#2563eb","marker-size":"small"}},
    {"type":"Feature","geometry":{"type":"Point","coordinates":[82.10,22.92]},"properties":{"name":"Minimata Bango Dam","state":"Chhattisgarh","river":"Hasdeo","height_m":44,"capacity_mcm":1000,"type":"earthfill","year_built":1990,"marker-color":"#2563eb","marker-size":"small"}},
    {"type":"Feature","geometry":{"type":"Point","coordinates":[79.57,16.51]},"properties":{"name":"Pulichintala Dam","state":"Telangana","river":"Krishna","height_m":44,"capacity_mcm":335,"type":"earthfill","year_built":2010,"marker-color":"#2563eb","marker-size":"small"}}    ,{"type":"Feature","geometry":{"type":"Point","coordinates":[82.37,18.56]},"properties":{"name":"Machkund Dam","state":"Odisha","river":"Machkund","height_m":43,"capacity_mcm":250,"type":"concrete_gravity","year_built":1955,"marker-color":"#2563eb","marker-size":"small"}}
    ,{"type":"Feature","geometry":{"type":"Point","coordinates":[75.68,19.67]},"properties":{"name":"Jayakwadi Dam","state":"Maharashtra","river":"Godavari","height_m":42,"capacity_mcm":720,"type":"earthfill","year_built":1972,"marker-color":"#2563eb","marker-size":"small"}}
    ,{"type":"Feature","geometry":{"type":"Point","coordinates":[92.54,25.40]},"properties":{"name":"Kopili Dam","state":"Meghalaya","river":"Kopili","height_m":42,"capacity_mcm":470,"type":"earthfill","year_built":1984,"marker-color":"#2563eb","marker-size":"small"}}
    ,{"type":"Feature","geometry":{"type":"Point","coordinates":[72.03,28.84]},"properties":{"name":"Rajasthan Canal Head","state":"Rajasthan","river":"Indira Gandhi Canal","height_m":40,"capacity_mcm":750,"type":"barrage","year_built":1965,"marker-color":"#2563eb","marker-size":"small"}}
    ,{"type":"Feature","geometry":{"type":"Point","coordinates":[72.66,23.37]},"properties":{"name":"Dharoi Dam","state":"Gujarat","river":"Sabarmati","height_m":40,"capacity_mcm":200,"type":"concrete_gravity","year_built":1978,"marker-color":"#2563eb","marker-size":"small"}}
    ,{"type":"Feature","geometry":{"type":"Point","coordinates":[88.17,27.38]},"properties":{"name":"Rangit Dam","state":"Sikkim","river":"Rangit","height_m":40,"capacity_mcm":100,"type":"earthfill","year_built":1995,"marker-color":"#2563eb","marker-size":"small"}}
    ,{"type":"Feature","geometry":{"type":"Point","coordinates":[76.68,10.40]},"properties":{"name":"Thunakkadavu Dam","state":"Tamil Nadu","river":"Sholayar","height_m":40,"capacity_mcm":80,"type":"earthfill","year_built":1975,"marker-color":"#2563eb","marker-size":"small"}}
    ,{"type":"Feature","geometry":{"type":"Point","coordinates":[77.36,23.28]},"properties":{"name":"Kaliasot Dam","state":"Madhya Pradesh","river":"Kaliasot","height_m":40,"capacity_mcm":100,"type":"earthfill","year_built":1980,"marker-color":"#2563eb","marker-size":"small"}}
    ,{"type":"Feature","geometry":{"type":"Point","coordinates":[82.10,21.50]},"properties":{"name":"Mahanadi Dam","state":"Chhattisgarh","river":"Mahanadi","height_m":40,"capacity_mcm":100,"type":"earthfill","year_built":1976,"marker-color":"#2563eb","marker-size":"small"}}
    ,{"type":"Feature","geometry":{"type":"Point","coordinates":[76.57,12.43]},"properties":{"name":"Krishna Raja Sagara","state":"Karnataka","river":"Cauvery","height_m":39,"capacity_mcm":210,"type":"masonry","year_built":1932,"marker-color":"#2563eb","marker-size":"small"}}
    ,{"type":"Feature","geometry":{"type":"Point","coordinates":[76.72,12.11]},"properties":{"name":"Kabini Dam","state":"Karnataka","river":"Kabini","height_m":39,"capacity_mcm":200,"type":"earthfill","year_built":1978,"marker-color":"#2563eb","marker-size":"small"}}
    ,{"type":"Feature","geometry":{"type":"Point","coordinates":[76.58,10.79]},"properties":{"name":"Malampuzha Dam","state":"Kerala","river":"Bharathapuzha","height_m":38,"capacity_mcm":115,"type":"earthfill","year_built":1957,"marker-color":"#2563eb","marker-size":"small"}}
    ,{"type":"Feature","geometry":{"type":"Point","coordinates":[81.36,21.35]},"properties":{"name":"Dudhawa Dam","state":"Chhattisgarh","river":"Shivnath","height_m":38,"capacity_mcm":230,"type":"earthfill","year_built":1980,"marker-color":"#2563eb","marker-size":"small"}}
    ,{"type":"Feature","geometry":{"type":"Point","coordinates":[76.58,10.79]},"properties":{"name":"Pezhuma Dam","state":"Kerala","river":"Bharathapuzha","height_m":38,"capacity_mcm":115,"type":"earthfill","year_built":1957,"marker-color":"#2563eb","marker-size":"small"}}
    ,{"type":"Feature","geometry":{"type":"Point","coordinates":[76.05,11.68]},"properties":{"name":"Banasura Sagar","state":"Kerala","river":"Kabini","height_m":37,"capacity_mcm":150,"type":"earthfill","year_built":1979,"marker-color":"#2563eb","marker-size":"small"}}
    ,{"type":"Feature","geometry":{"type":"Point","coordinates":[77.13,31.67]},"properties":{"name":"Pandoh Dam","state":"Himachal Pradesh","river":"Beas","height_m":37,"capacity_mcm":250,"type":"earthfill","year_built":1975,"marker-color":"#2563eb","marker-size":"small"}}
    ,{"type":"Feature","geometry":{"type":"Point","coordinates":[77.13,33.72]},"properties":{"name":"Chutak Dam","state":"Ladakh","river":"Surfu","height_m":37,"capacity_mcm":100,"type":"concrete_gravity","year_built":2012,"marker-color":"#2563eb","marker-size":"small"}}
    ,{"type":"Feature","geometry":{"type":"Point","coordinates":[77.13,34.16]},"properties":{"name":"Nimmo Bazgo Dam","state":"Ladakh","river":"Indus","height_m":36,"capacity_mcm":100,"type":"concrete_gravity","year_built":2012,"marker-color":"#2563eb","marker-size":"small"}}
  ]
}
